{
  "norad_id": 37193,
  "name": "GLOBALSTAR M073",
  "history": [
    {
      "epoch": "2026-03-28T21:35:18.529728Z",
      "apogee_km": 1414.138315645645,
      "perigee_km": 1413.073807708558,
      "latitude_deg": 11.384436669800598,
      "longitude_deg": 167.55438044701742,
      "height_km": 1413.5569048059665,
      "semi_major_axis_km": 7791.743061677101,
      "eccentricity": 6.831e-05,
      "inclination_deg": 52.0071,
      "raan_deg": 308.6913,
      "arg_perigee_deg": 106.4816,
      "mean_anomaly_deg": 268.0388,
      "mean_motion_rev_day": 12.62265835
    },
    {
      "epoch": "2026-03-29T00:10:22.160352Z",
      "apogee_km": 1414.1414408508926,
      "perigee_km": 1413.0708553423447,
      "latitude_deg": 27.61114089356206,
      "longitude_deg": -84.63457873389932,
      "height_km": 1414.379221809325,
      "semi_major_axis_km": 7791.743148096619,
      "eccentricity": 6.87e-05,
      "inclination_deg": 52.0071,
      "raan_deg": 308.3635,
      "arg_perigee_deg": 106.6511,
      "mean_anomaly_deg": 37.426,
      "mean_motion_rev_day": 12.62265814
    },
    {
      "epoch": "2026-03-30T00:55:42.807360Z",
      "apogee_km": 1414.1408858127688,
      "perigee_km": 1413.070612028776,
      "latitude_deg": 20.548270263844156,
      "longitude_deg": -93.07926372974714,
      "height_km": 1413.5786739279501,
      "semi_major_axis_km": 7791.742748920772,
      "eccentricity": 6.868e-05,
      "inclination_deg": 52.0069,
      "raan_deg": 305.2236,
      "arg_perigee_deg": 107.4817,
      "mean_anomaly_deg": 46.1211,
      "mean_motion_rev_day": 12.62265911
    },
    {
      "epoch": "2026-03-30T15:30:34.012800Z",
      "apogee_km": 1414.1374162910051,
      "perigee_km": 1413.0739992462477,
      "latitude_deg": 27.439498844402053,
      "longitude_deg": -93.50167857583082,
      "height_km": 1414.6183446738246,
      "semi_major_axis_km": 7791.742707768626,
      "eccentricity": 6.824e-05,
      "inclination_deg": 52.0069,
      "raan_deg": 303.3741,
      "arg_perigee_deg": 108.1819,
      "mean_anomaly_deg": 287.5065,
      "mean_motion_rev_day": 12.62265921
    },
    {
      "epoch": "2026-03-30T21:06:05.757984Z",
      "apogee_km": 1414.1385233199699,
      "perigee_km": 1413.0727687608442,
      "latitude_deg": 11.775402927561538,
      "longitude_deg": 167.20072839005022,
      "height_km": 1413.56971636736,
      "semi_major_axis_km": 7791.742646040407,
      "eccentricity": 6.839e-05,
      "inclination_deg": 52.0068,
      "raan_deg": 302.6649,
      "arg_perigee_deg": 108.431,
      "mean_anomaly_deg": 266.5893,
      "mean_motion_rev_day": 12.62265936
    },
    {
      "epoch": "2026-03-31T14:18:41.501952Z",
      "apogee_km": 1414.1367877281782,
      "perigee_km": 1413.0739940660587,
      "latitude_deg": 27.034572546738396,
      "longitude_deg": -79.79565205641025,
      "height_km": 1414.5686877466253,
      "semi_major_axis_km": 7791.742390897118,
      "eccentricity": 6.82e-05,
      "inclination_deg": 52.0067,
      "raan_deg": 300.482,
      "arg_perigee_deg": 108.7567,
      "mean_anomaly_deg": 286.3734,
      "mean_motion_rev_day": 12.62265998
    },
    {
      "epoch": "2026-04-01T20:36:33.427008Z",
      "apogee_km": 1414.143660369382,
      "perigee_km": 1413.0668415902974,
      "latitude_deg": 11.362295073846395,
      "longitude_deg": 166.2698468373379,
      "height_km": 1413.5928129458646,
      "semi_major_axis_km": 7791.74225097984,
      "eccentricity": 6.91e-05,
      "inclination_deg": 52.0064,
      "raan_deg": 296.6391,
      "arg_perigee_deg": 110.3489,
      "mean_anomaly_deg": 264.1434,
      "mean_motion_rev_day": 12.62266032
    },
    {
      "epoch": "2026-04-02T19:24:28.025280Z",
      "apogee_km": 1414.1432740666442,
      "perigee_km": 1413.0667669890863,
      "latitude_deg": 10.393852305755068,
      "longitude_deg": 179.67498114870176,
      "height_km": 1413.623941763651,
      "semi_major_axis_km": 7791.742020527865,
      "eccentricity": 6.908e-05,
      "inclination_deg": 52.0063,
      "raan_deg": 293.7474,
      "arg_perigee_deg": 111.6286,
      "mean_anomaly_deg": 261.6275,
      "mean_motion_rev_day": 12.62266088
    },
    {
      "epoch": "2026-04-03T12:33:41.328864Z",
      "apogee_km": 1414.138537012006,
      "perigee_km": 1413.0712242091995,
      "latitude_deg": 17.738100710883092,
      "longitude_deg": -74.31094999938043,
      "height_km": 1413.7287153772052,
      "semi_major_axis_km": 7791.7418806106025,
      "eccentricity": 6.849e-05,
      "inclination_deg": 52.0062,
      "raan_deg": 291.5717,
      "arg_perigee_deg": 112.2697,
      "mean_anomaly_deg": 270.4441,
      "mean_motion_rev_day": 12.62266122
    },
    {
      "epoch": "2026-04-05T14:04:09.920352Z",
      "apogee_km": 1414.127463676913,
      "perigee_km": 1413.0818119491178,
      "latitude_deg": 31.285851578793295,
      "longitude_deg": -91.4539485785859,
      "height_km": 1415.246915941285,
      "semi_major_axis_km": 7791.741637813015,
      "eccentricity": 6.71e-05,
      "inclination_deg": 52.006,
      "raan_deg": 285.2922,
      "arg_perigee_deg": 113.9563,
      "mean_anomaly_deg": 287.1429,
      "mean_motion_rev_day": 12.62266181
    },
    {
      "epoch": "2026-04-05T19:37:22.680768Z",
      "apogee_km": 1414.1299123176514,
      "perigee_km": 1413.0795855298957,
      "latitude_deg": 10.285538107552286,
      "longitude_deg": 164.2340153924043,
      "height_km": 1413.6547573156768,
      "semi_major_axis_km": 7791.741748923773,
      "eccentricity": 6.74e-05,
      "inclination_deg": 52.0059,
      "raan_deg": 284.5877,
      "arg_perigee_deg": 114.9832,
      "mean_anomaly_deg": 258.1346,
      "mean_motion_rev_day": 12.62266154
    },
    {
      "epoch": "2026-04-06T00:13:55.709184Z",
      "apogee_km": 1414.1300846144486,
      "perigee_km": 1413.0794461548048,
      "latitude_deg": 10.788168123490793,
      "longitude_deg": -102.30320769087895,
      "height_km": 1413.2122097258984,
      "semi_major_axis_km": 7791.741765384627,
      "eccentricity": 6.742e-05,
      "inclination_deg": 52.0058,
      "raan_deg": 284.0031,
      "arg_perigee_deg": 114.9618,
      "mean_anomaly_deg": 51.2808,
      "mean_motion_rev_day": 12.6226615
    },
    {
      "epoch": "2026-04-07T19:09:27.321696Z",
      "apogee_km": 1414.121106819026,
      "perigee_km": 1413.0879218942218,
      "latitude_deg": 13.860096352609537,
      "longitude_deg": 166.1812531722015,
      "height_km": 1413.653827331211,
      "semi_major_axis_km": 7791.741514356623,
      "eccentricity": 6.63e-05,
      "inclination_deg": 52.0055,
      "raan_deg": 278.5583,
      "arg_perigee_deg": 117.8065,
      "mean_anomaly_deg": 259.8874,
      "mean_motion_rev_day": 12.62266211
    },
    {
      "epoch": "2026-04-08T10:20:03.561792Z",
      "apogee_km": 1414.1152215813045,
      "perigee_km": 1413.0935684495907,
      "latitude_deg": 9.920225754298619,
      "longitude_deg": -67.26188980329142,
      "height_km": 1413.6900922726038,
      "semi_major_axis_km": 7791.741395015448,
      "eccentricity": 6.556e-05,
      "inclination_deg": 52.0055,
      "raan_deg": 276.6333,
      "arg_perigee_deg": 118.2823,
      "mean_anomaly_deg": 254.3697,
      "mean_motion_rev_day": 12.6226624
    },
    {
      "epoch": "2026-04-09T21:20:48.669216Z",
      "apogee_km": 1414.106645443614,
      "perigee_km": 1413.1015108445335,
      "latitude_deg": 11.648605799878338,
      "longitude_deg": -75.36249809724924,
      "height_km": 1413.180169511011,
      "semi_major_axis_km": 7791.741078144074,
      "eccentricity": 6.45e-05,
      "inclination_deg": 52.0055,
      "raan_deg": 272.1922,
      "arg_perigee_deg": 120.2519,
      "mean_anomaly_deg": 44.8923,
      "mean_motion_rev_day": 12.62266317
    },
    {
      "epoch": "2026-04-10T09:50:52.331424Z",
      "apogee_km": 1414.099492950524,
      "perigee_km": 1413.1083835031814,
      "latitude_deg": 10.379141691183362,
      "longitude_deg": -67.5713597289489,
      "height_km": 1413.6950955533246,
      "semi_major_axis_km": 7791.740938226852,
      "eccentricity": 6.36e-05,
      "inclination_deg": 52.0055,
      "raan_deg": 270.6066,
      "arg_perigee_deg": 120.9162,
      "mean_anomaly_deg": 252.3204,
      "mean_motion_rev_day": 12.62266351
    },
    {
      "epoch": "2026-04-11T18:09:28.785024Z",
      "apogee_km": 1414.0947849821896,
      "perigee_km": 1413.1130256281222,
      "latitude_deg": 10.826915866759613,
      "longitude_deg": 162.71556646129886,
      "height_km": 1413.704913531765,
      "semi_major_axis_km": 7791.740905305156,
      "eccentricity": 6.3e-05,
      "inclination_deg": 52.0054,
      "raan_deg": 266.5082,
      "arg_perigee_deg": 123.4944,
      "mean_anomaly_deg": 250.3133,
      "mean_motion_rev_day": 12.62266359
    }
  ]
}